[{"OBJECT_NAME":"YAOGAN-14","OBJECT_ID":"2012-021A","EPOCH":"2026-03-09T23:13:16.463424","MEAN_MOTION":15.26486019,"ECCENTRICITY":0.00056417,"INCLINATION":97.2863,"RA_OF_ASC_NODE":208.4378,"ARG_OF_PERICENTER":161.6562,"MEAN_ANOMALY":198.4882,"EPHEMERIS_TYPE":0,"CLASSIFICATION_TYPE":"U","NORAD_CAT_ID":38257,"ELEMENT_SET_NO":999,"REV_AT_EPOCH":77067,"BSTAR":0.00037795498,"MEAN_MOTION_DOT":9.798e-5,"MEAN_MOTION_DDOT":0},{"OBJECT_NAME":"STARLINK-31910","OBJECT_ID":"2024-084L","EPOCH":"2026-03-09T22:30:20.259936","MEAN_MOTION":15.2744923,"ECCENTRICITY":0.00011468,"INCLINATION":43.0019,"RA_OF_ASC_NODE":40.1735,"ARG_OF_PERICENTER":235.7114,"MEAN_ANOMALY":124.3629,"EPHEMERIS_TYPE":0,"CLASSIFICATION_TYPE":"U","NORAD_CAT_ID":59664,"ELEMENT_SET_NO":999,"REV_AT_EPOCH":10441,"BSTAR":0.00081408902,"MEAN_MOTION_DOT":0.00022118,"MEAN_MOTION_DDOT":0}]
